{
  "type": "FeatureCollection",
  "features": [
    {
      "type": "Feature",
      "properties": {
        "norad_id": 34540,
        "name": "IRIDIUM 33 DEB",
        "group": "iridium-33-debris",
        "lat": 23.135760042997546,
        "lon": 130.48702314606385,
        "alt_km": 636.8533294047784,
        "timestamp": "2025-12-02T23:34:15.901718+00:00",
        "meta_object_name": "IRIDIUM 33 DEB",
        "meta_object_id": "1997-051JH",
        "meta_epoch": "2025-12-02T10:24:08.670816",
        "meta_mean_motion": 14.74958051,
        "meta_eccentricity": 0.0014683,
        "meta_inclination": 86.3092,
        "meta_ra_of_asc_node": 312.3182,
        "meta_arg_of_pericenter": 197.1852,
        "meta_mean_anomaly": 288.0339,
        "meta_ephemeris_type": 0,
        "meta_classification_type": "U",
        "meta_norad_cat_id": 34540,
        "meta_element_set_no": 999,
        "meta_rev_at_epoch": 88869,
        "meta_bstar": 0.0020015,
        "meta_mean_motion_dot": 0.00013506,
        "meta_mean_motion_ddot": 0,
        "tle_line1": "1 34540U 97051JH  25336.43343369  .00013506  00000+0  20015-2 0  9996",
        "tle_line2": "2 34540  86.3092 312.3182 0014683 197.1852 288.0339 14.74958051888697"
      },
      "geometry": {
        "type": "Point",
        "coordinates": [
          130.48702314606385,
          23.135760042997546
        ]
      }
    },
    {
      "type": "Feature",
      "properties": {
        "norad_id": 34648,
        "name": "IRIDIUM 33 DEB",
        "group": "iridium-33-debris",
        "lat": 26.85447126963585,
        "lon": -72.28462370335487,
        "alt_km": 782.1026297015524,
        "timestamp": "2025-12-02T23:34:15.901728+00:00",
        "meta_object_name": "IRIDIUM 33 DEB",
        "meta_object_id": "1997-051JZ",
        "meta_epoch": "2025-12-01T03:11:38.418720",
        "meta_mean_motion": 14.1087899,
        "meta_eccentricity": 0.01868529,
        "meta_inclination": 86.3903,
        "meta_ra_of_asc_node": 286.6295,
        "meta_arg_of_pericenter": 334.6513,
        "meta_mean_anomaly": 24.5588,
        "meta_ephemeris_type": 0,
        "meta_classification_type": "U",
        "meta_norad_cat_id": 34648,
        "meta_element_set_no": 999,
        "meta_rev_at_epoch": 84797,
        "meta_bstar": 0.0079356223,
        "meta_mean_motion_dot": 0.00016788,
        "meta_mean_motion_ddot": 0,
        "tle_line1": "1 34648U 97051JZ  25335.13308355  .00016788  00000+0  79356-2 0  9994",
        "tle_line2": "2 34648  86.3903 286.6295 0186852 334.6513  24.5588 14.10878990847973"
      },
      "geometry": {
        "type": "Point",
        "coordinates": [
          -72.28462370335487,
          26.85447126963585
        ]
      }
    },
    {
      "type": "Feature",
      "properties": {
        "norad_id": 34651,
        "name": "IRIDIUM 33 DEB",
        "group": "iridium-33-debris",
        "lat": -61.95717119292452,
        "lon": 137.71499828412732,
        "alt_km": 766.3283536700528,
        "timestamp": "2025-12-02T23:34:15.901740+00:00",
        "meta_object_name": "IRIDIUM 33 DEB",
        "meta_object_id": "1997-051KC",
        "meta_epoch": "2025-12-02T05:19:54.206688",
        "meta_mean_motion": 14.25531146,
        "meta_eccentricity": 0.0141862,
        "meta_inclination": 86.2826,
        "meta_ra_of_asc_node": 145.0488,
        "meta_arg_of_pericenter": 237.4272,
        "meta_mean_anomaly": 121.3155,
        "meta_ephemeris_type": 0,
        "meta_classification_type": "U",
        "meta_norad_cat_id": 34651,
        "meta_element_set_no": 999,
        "meta_rev_at_epoch": 85746,
        "meta_bstar": 0.0036308,
        "meta_mean_motion_dot": 9.56e-05,
        "meta_mean_motion_ddot": 0,
        "tle_line1": "1 34651U 97051KC  25336.22215517  .00009560  00000+0  36308-2 0  9996",
        "tle_line2": "2 34651  86.2826 145.0488 0141862 237.4272 121.3155 14.25531146857462"
      },
      "geometry": {
        "type": "Point",
        "coordinates": [
          137.71499828412732,
          -61.95717119292452
        ]
      }
    },
    {
      "type": "Feature",
      "properties": {
        "norad_id": 34652,
        "name": "IRIDIUM 33 DEB",
        "group": "iridium-33-debris",
        "lat": 25.46986966351276,
        "lon": 162.5953465748844,
        "alt_km": 705.448241203233,
        "timestamp": "2025-12-02T23:34:15.901750+00:00",
        "meta_object_name": "IRIDIUM 33 DEB",
        "meta_object_id": "1997-051KD",
        "meta_epoch": "2025-12-02T12:03:44.444736",
        "meta_mean_motion": 14.61898676,
        "meta_eccentricity": 0.0027063,
        "meta_inclination": 86.3312,
        "meta_ra_of_asc_node": 344.5601,
        "meta_arg_of_pericenter": 334.9096,
        "meta_mean_anomaly": 177.4047,
        "meta_ephemeris_type": 0,
        "meta_classification_type": "U",
        "meta_norad_cat_id": 34652,
        "meta_element_set_no": 999,
        "meta_rev_at_epoch": 88334,
        "meta_bstar": 0.0012168,
        "meta_mean_motion_dot": 6.139e-05,
        "meta_mean_motion_ddot": 0,
        "tle_line1": "1 34652U 97051KD  25336.50259774  .00006139  00000+0  12168-2 0  9998",
        "tle_line2": "2 34652  86.3312 344.5601 0027063 334.9096 177.4047 14.61898676883342"
      },
      "geometry": {
        "type": "Point",
        "coordinates": [
          162.5953465748844,
          25.46986966351276
        ]
      }
    },
    {
      "type": "Feature",
      "properties": {
        "norad_id": 34690,
        "name": "IRIDIUM 33 DEB",
        "group": "iridium-33-debris",
        "lat": -79.2437450785662,
        "lon": -119.29882605713492,
        "alt_km": 724.4970674146971,
        "timestamp": "2025-12-02T23:34:15.901760+00:00",
        "meta_object_name": "IRIDIUM 33 DEB",
        "meta_object_id": "1997-051KM",
        "meta_epoch": "2025-12-02T11:05:34.176768",
        "meta_mean_motion": 14.55030939,
        "meta_eccentricity": 0.0011852,
        "meta_inclination": 86.3794,
        "meta_ra_of_asc_node": 41.4576,
        "meta_arg_of_pericenter": 59.8454,
        "meta_mean_anomaly": 358.3612,
        "meta_ephemeris_type": 0,
        "meta_classification_type": "U",
        "meta_norad_cat_id": 34690,
        "meta_element_set_no": 999,
        "meta_rev_at_epoch": 87945,
        "meta_bstar": 0.00062694,
        "meta_mean_motion_dot": 2.723e-05,
        "meta_mean_motion_ddot": 0,
        "tle_line1": "1 34690U 97051KM  25336.46220112  .00002723  00000+0  62694-3 0  9994",
        "tle_line2": "2 34690  86.3794  41.4576 0011852  59.8454 358.3612 14.55030939879450"
      },
      "geometry": {
        "type": "Point",
        "coordinates": [
          -119.29882605713492,
          -79.2437450785662
        ]
      }
    },
    {
      "type": "Feature",
      "properties": {
        "norad_id": 34693,
        "name": "IRIDIUM 33 DEB",
        "group": "iridium-33-debris",
        "lat": -27.58702343445499,
        "lon": -53.27508711853638,
        "alt_km": 499.0060633000039,
        "timestamp": "2025-12-02T23:34:15.901772+00:00",
        "meta_object_name": "IRIDIUM 33 DEB",
        "meta_object_id": "1997-051KQ",
        "meta_epoch": "2025-12-02T05:02:44.335968",
        "meta_mean_motion": 15.24289177,
        "meta_eccentricity": 0.0016139,
        "meta_inclination": 86.305,
        "meta_ra_of_asc_node": 309.0413,
        "meta_arg_of_pericenter": 69.1334,
        "meta_mean_anomaly": 350.4377,
        "meta_ephemeris_type": 0,
        "meta_classification_type": "U",
        "meta_norad_cat_id": 34693,
        "meta_element_set_no": 999,
        "meta_rev_at_epoch": 88754,
        "meta_bstar": 0.0049862,
        "meta_mean_motion_dot": 0.00124045,
        "meta_mean_motion_ddot": 0,
        "tle_line1": "1 34693U 97051KQ  25336.21023537  .00124045  00000+0  49862-2 0  9995",
        "tle_line2": "2 34693  86.3050 309.0413 0016139  69.1334 350.4377 15.24289177887542"
      },
      "geometry": {
        "type": "Point",
        "coordinates": [
          -53.27508711853638,
          -27.58702343445499
        ]
      }
    },
    {
      "type": "Feature",
      "properties": {
        "norad_id": 34696,
        "name": "IRIDIUM 33 DEB",
        "group": "iridium-33-debris",
        "lat": 60.30690459883894,
        "lon": 38.77710997600795,
        "alt_km": 714.2581427474915,
        "timestamp": "2025-12-02T23:34:15.901783+00:00",
        "meta_object_name": "IRIDIUM 33 DEB",
        "meta_object_id": "1997-051KT",
        "meta_epoch": "2025-12-02T10:15:31.222080",
        "meta_mean_motion": 14.64140444,
        "meta_eccentricity": 0.0074964,
        "meta_inclination": 86.1859,
        "meta_ra_of_asc_node": 32.3162,
        "meta_arg_of_pericenter": 202.3954,
        "meta_mean_anomaly": 176.9132,
        "meta_ephemeris_type": 0,
        "meta_classification_type": "U",
        "meta_norad_cat_id": 34696,
        "meta_element_set_no": 999,
        "meta_rev_at_epoch": 86522,
        "meta_bstar": 0.0067332,
        "meta_mean_motion_dot": 0.00037042,
        "meta_mean_motion_ddot": 0,
        "tle_line1": "1 34696U 97051KT  25336.42744470  .00037042  00000+0  67332-2 0  9999",
        "tle_line2": "2 34696  86.1859  32.3162 0074964 202.3954 176.9132 14.64140444865223"
      },
      "geometry": {
        "type": "Point",
        "coordinates": [
          38.77710997600795,
          60.30690459883894
        ]
      }
    }
  ]
}